[{"nameEN":"Bielawa","nameRU":null,"lat":67.34720626785955,"lng":-135.71087645530702,"spellings":["Bielawa"],"type":"Village","minZoom":3},{"nameEN":"Lukow","nameRU":null,"lat":82.54731503471534,"lng":-80.7028255748749,"spellings":["Lukow"],"type":"Village","minZoom":3},{"nameEN":"Gliniska","nameRU":null,"lat":69.85099172367825,"lng":-39.56432838821412,"spellings":["Gliniska"],"type":"Village","minZoom":3},{"nameEN":"Brena","nameRU":null,"lat":79.21866693729298,"lng":6.130709318161025,"spellings":["Brena"],"type":"City","minZoom":2},{"nameEN":"Tarnow","nameRU":null,"lat":77.48312715991617,"lng":82.35462474632261,"spellings":["Tarnow"],"type":"City","minZoom":2},{"nameEN":"Sitnik","nameRU":null,"lat":66.18899418023753,"lng":143.48717899131773,"spellings":["Sitnik"],"type":"Village","minZoom":3},{"nameEN":"Borek","nameRU":null,"lat":50.620871129037766,"lng":95.82909454536438,"spellings":["Borek"],"type":"Village","minZoom":3},{"nameEN":"Zapadlisko","nameRU":null,"lat":54.32947874871789,"lng":46.64072785377503,"spellings":["Zapadlisko"],"type":"Village","minZoom":3},{"nameEN":"Nidek","nameRU":null,"lat":41.23150565469869,"lng":-7.612586248397829,"spellings":["Nidek"],"type":"Village","minZoom":3},{"nameEN":"Topolin","nameRU":null,"lat":25.280373302041,"lng":-127.68631481552126,"spellings":["Topolin"],"type":"City","minZoom":2},{"nameEN":"Adamów","nameRU":null,"lat":12.554714430290675,"lng":-93.45067844581604,"spellings":["Adamów","Adamow"],"type":"Village","minZoom":3},{"nameEN":"Muratyn","nameRU":null,"lat":-0.4716233208675635,"lng":-51.518639087677,"spellings":["Muratyn"],"type":"Village","minZoom":3},{"nameEN":"Radunin","nameRU":null,"lat":2.550412589832143,"lng":25.273297313690193,"spellings":["Radunin"],"type":"City","minZoom":2},{"nameEN":"Lembork","nameRU":null,"lat":6.580375575402969,"lng":64.13746101951597,"spellings":["Lembork"],"type":"Village","minZoom":3},{"nameEN":"Gieraltów","nameRU":null,"lat":-49.29866465117064,"lng":136.11162349319457,"spellings":["Gieraltów","Gieraltow"],"type":"Village","minZoom":3},{"nameEN":"Nadbór","nameRU":null,"lat":-56.053339994084034,"lng":-8.157830142974852,"spellings":["Nadbór","Nadbor"],"type":"City","minZoom":2},{"nameEN":"Zalesie","nameRU":null,"lat":-23.62568151169652,"lng":-154.75841935729983,"spellings":["Zalesie"],"type":"Village","minZoom":3},{"nameEN":"Huta","nameRU":null,"lat":-25.24716594136927,"lng":-35.37868869209289,"spellings":["Huta"],"type":"Village","minZoom":3},{"nameEN":"Radacz","nameRU":null,"lat":39.6602432518998,"lng":-67.25788161849975,"spellings":["Radacz"],"type":"Village","minZoom":3},{"nameEN":"Olszanka","nameRU":null,"lat":33.671102089837134,"lng":-44.445653177261356,"spellings":["Olszanka"],"type":"Village","minZoom":3},{"nameEN":"Lipina","nameRU":null,"lat":11.695581713104307,"lng":-12.8715606250763,"spellings":["Lipina"],"type":"Village","minZoom":3},{"nameEN":"Kolembrody","nameRU":null,"lat":82.60327431312793,"lng":56.72731810569768,"spellings":["Kolembrody"],"type":"Village","minZoom":3},{"nameEN":"Karlin","nameRU":null,"lat":15.43839451585946,"lng":103.28788479995728,"spellings":["Karlin"],"type":"Village","minZoom":3},{"nameEN":"Sobotka","nameRU":null,"lat":72.82473511126669,"lng":-4.011839435577404,"spellings":["Sobotka"],"type":"Village","minZoom":3},{"nameEN":"Roztoka","nameRU":null,"lat":-29.1307568156573,"lng":36.43406584167479,"spellings":["Roztoka"],"type":"Village","minZoom":3},{"nameEN":"Polana","nameRU":null,"lat":-75.97007882422942,"lng":-87.73391290855407,"spellings":["Polana"],"type":"Village","minZoom":3},{"nameEN":"Dolnik","nameRU":null,"lat":-83.17617439541908,"lng":138.14665704917908,"spellings":["Dolnik"],"type":"Village","minZoom":3},{"nameEN":"Sowa","nameRU":null,"lat":82.895668545684,"lng":147.99929014778144,"spellings":["Sowa"],"type":"Hill","minZoom":6},{"nameEN":"Krsnik","nameRU":null,"lat":71.34046319834552,"lng":41.48579692268372,"spellings":["Krsnik"],"type":"Hill","minZoom":6},{"nameEN":"Dambog","nameRU":null,"lat":-81.41609938872817,"lng":-163.72358998489383,"spellings":["Dambog"],"type":"Hill","minZoom":6},{"nameEN":"Skala","nameRU":null,"lat":-77.12140583671989,"lng":-95.61759409904481,"spellings":["Skala"],"type":"Hill","minZoom":6},{"nameEN":"Swarog","nameRU":null,"lat":-75.32812890306779,"lng":-43.43474456405641,"spellings":["Swarog"],"type":"Hill","minZoom":6},{"nameEN":"Rodzanica","nameRU":null,"lat":-76.57188335907763,"lng":69.79151929092411,"spellings":["Rodzanica"],"type":"Hill","minZoom":6},{"nameEN":"Bagno","nameRU":null,"lat":78.80864812676276,"lng":152.49959096717836,"spellings":["Bagno"],"type":"Local","minZoom":4},{"nameEN":"Wrzeszcz","nameRU":null,"lat":-48.22153800739842,"lng":74.33878026008607,"spellings":["Wrzeszcz"],"type":"Local","minZoom":4},{"nameEN":"Drewniki","nameRU":null,"lat":-34.493780306987574,"lng":-15.884602569580055,"spellings":["Drewniki"],"type":"Local","minZoom":4},{"nameEN":"Kulno","nameRU":null,"lat":-74.08860438438637,"lng":133.58083697891237,"spellings":["Kulno"],"type":"Local","minZoom":4},{"nameEN":"Hrud","nameRU":null,"lat":63.790736246619254,"lng":1.4872784614563173,"spellings":["Hrud"],"type":"Local","minZoom":4},{"nameEN":"Jantar","nameRU":null,"lat":58.12989267599833,"lng":-80.62690197944642,"spellings":["Jantar"],"type":"Marine","minZoom":5},{"nameEN":"Grabinskie","nameRU":null,"lat":78.0106676243006,"lng":136.37088851165774,"spellings":["Grabinskie"],"type":"Marine","minZoom":5},{"nameEN":"Wolisko","nameRU":null,"lat":77.35548516455509,"lng":167.8434684047699,"spellings":["Wolisko"],"type":"Marine","minZoom":5},{"nameEN":"Sitnickie","nameRU":null,"lat":74.3087869371576,"lng":140.94514453697207,"spellings":["Sitnickie"],"type":"Marine","minZoom":5},{"nameEN":"Grabin","nameRU":null,"lat":78.19823183477581,"lng":119.97645347213744,"spellings":["Grabin"],"type":"Village","minZoom":3},{"nameEN":"castle","nameRU":"Branzow Castle","lat":80.25845639765915,"lng":-149.79639059829714,"spellings":["castle","Branzow Castle"],"type":"Ruin","minZoom":5},{"nameEN":"Piorun","nameRU":null,"lat":83.21610364563624,"lng":-161.80159822654724,"spellings":["Piorun"],"type":"Hill","minZoom":6},{"nameEN":"Jezurów","nameRU":null,"lat":-74.36098088841065,"lng":-120.96735781860353,"spellings":["Jezurów","Jezurow"],"type":"Local","minZoom":4},{"nameEN":"Tymbark","nameRU":null,"lat":-81.00118567494123,"lng":-98.33959559440615,"spellings":["Tymbark"],"type":"Local","minZoom":4},{"nameEN":"Hedryków","nameRU":null,"lat":-41.09377837895276,"lng":-53.05173331832887,"spellings":["Hedryków","Hedrykow"],"type":"Local","minZoom":4},{"nameEN":"Widok","nameRU":null,"lat":-75.89194749287441,"lng":107.94987475776676,"spellings":["Widok"],"type":"Local","minZoom":4},{"nameEN":"Kopa","nameRU":null,"lat":55.23511127327998,"lng":-24.767944433212264,"spellings":["Kopa"],"type":"Hill","minZoom":6},{"nameEN":"Max","nameRU":"KAMIENIOŁOM MAKSYMILIAN","lat":-39.97502238193489,"lng":3.1674395084381035,"spellings":["Max","KAMIENIOŁOM MAKSYMILIAN"],"type":"Local","minZoom":4},{"nameEN":"Piekło","nameRU":null,"lat":-60.00697512191235,"lng":-86.48960953903199,"spellings":["Piekło"],"type":"Local","minZoom":4},{"nameEN":"Sarnówek","nameRU":null,"lat":-37.28707607241822,"lng":-86.93390317153931,"spellings":["Sarnówek","Sarnowek"],"type":"Village","minZoom":3},{"nameEN":"Konopki","nameRU":null,"lat":-69.68249821952709,"lng":143.12893210029605,"spellings":["Konopki"],"type":"Village","minZoom":3},{"nameEN":"Pionier","nameRU":null,"lat":-39.5578636492894,"lng":-142.23468169212344,"spellings":["Pionier"],"type":"Camp","minZoom":5},{"nameEN":"Potoki","nameRU":null,"lat":-77.17688092615366,"lng":147.1866264781952,"spellings":["Potoki"],"type":"Camp","minZoom":5},{"nameEN":"Rumianek","nameRU":null,"lat":-24.883431246674416,"lng":151.17205284118654,"spellings":["Rumianek"],"type":"Camp","minZoom":5},{"nameEN":"Lawenda","nameRU":null,"lat":52.564305188892924,"lng":-157.07633860588075,"spellings":["Lawenda"],"type":"Camp","minZoom":5},{"nameEN":"Tymianka","nameRU":null,"lat":71.17312363855035,"lng":139.25289195442198,"spellings":["Tymianka"],"type":"Camp","minZoom":5},{"nameEN":"Półkrabiec","nameRU":null,"lat":5.028333261086,"lng":153.86340369987485,"spellings":["Półkrabiec","Połkrabiec"],"type":"Ruin","minZoom":5}]